CCSDS_OMM_VERS = 2.0
CREATION_DATE  = 
ORIGINATOR     = 

OBJECT_NAME    = ERS-1
OBJECT_ID      = 1991-050A
CENTER_NAME    = EARTH
REF_FRAME      = TEME
TIME_SYSTEM    = UTC
MEAN_ELEMENT_THEORY = SGP/SGP4

EPOCH          = 2026-03-13T00:48:45.401184
MEAN_MOTION    = 14.39452345
ECCENTRICITY   = .00318116
INCLINATION    = 98.7878
RA_OF_ASC_NODE = 90.3524
ARG_OF_PERICENTER = 190.4473
MEAN_ANOMALY   = 169.6057

EPHEMERIS_TYPE = 0
CLASSIFICATION_TYPE = U
NORAD_CAT_ID   = 21574
ELEMENT_SET_NO = 999
REV_AT_EPOCH   = 81621
BSTAR          = .1362641E-3
MEAN_MOTION_DOT = .38E-5
MEAN_MOTION_DDOT = 0

CCSDS_OMM_VERS = 2.0
CREATION_DATE  = 
ORIGINATOR     = 

OBJECT_NAME    = ARIANE 40 R/B
OBJECT_ID      = 1991-050F
CENTER_NAME    = EARTH
REF_FRAME      = TEME
TIME_SYSTEM    = UTC
MEAN_ELEMENT_THEORY = SGP/SGP4

EPOCH          = 2026-03-13T13:29:40.439040
MEAN_MOTION    = 14.42896879
ECCENTRICITY   = .0004233
INCLINATION    = 98.2003
RA_OF_ASC_NODE = 124.6531
ARG_OF_PERICENTER = 72.7930
MEAN_ANOMALY   = 287.3724

EPHEMERIS_TYPE = 0
CLASSIFICATION_TYPE = U
NORAD_CAT_ID   = 21610
ELEMENT_SET_NO = 999
REV_AT_EPOCH   = 81955
BSTAR          = .1198673E-3
MEAN_MOTION_DOT = .359E-5
MEAN_MOTION_DDOT = 0

CCSDS_OMM_VERS = 2.0
CREATION_DATE  = 
ORIGINATOR     = 

OBJECT_NAME    = INTERCOSMOS 25
OBJECT_ID      = 1991-086A
CENTER_NAME    = EARTH
REF_FRAME      = TEME
TIME_SYSTEM    = UTC
MEAN_ELEMENT_THEORY = SGP/SGP4

EPOCH          = 2026-03-13T14:53:09.397824
MEAN_MOTION    = 12.12013799
ECCENTRICITY   = .14869024
INCLINATION    = 82.6046
RA_OF_ASC_NODE = 307.6324
ARG_OF_PERICENTER = 108.4674
MEAN_ANOMALY   = 268.3422

EPHEMERIS_TYPE = 0
CLASSIFICATION_TYPE = U
NORAD_CAT_ID   = 21819
ELEMENT_SET_NO = 999
REV_AT_EPOCH   = 49716
BSTAR          = .41694273E-3
MEAN_MOTION_DOT = .2163E-4
MEAN_MOTION_DDOT = 0

CCSDS_OMM_VERS = 2.0
CREATION_DATE  = 
ORIGINATOR     = 

OBJECT_NAME    = SL-8 R/B
OBJECT_ID      = 1992-008B
CENTER_NAME    = EARTH
REF_FRAME      = TEME
TIME_SYSTEM    = UTC
MEAN_ELEMENT_THEORY = SGP/SGP4

EPOCH          = 2026-03-13T11:55:01.397280
MEAN_MOTION    = 13.75969756
ECCENTRICITY   = .00357006
INCLINATION    = 82.9222
RA_OF_ASC_NODE = 264.9457
ARG_OF_PERICENTER = 123.0216
MEAN_ANOMALY   = 265.6848

EPHEMERIS_TYPE = 0
CLASSIFICATION_TYPE = U
NORAD_CAT_ID   = 21876
ELEMENT_SET_NO = 999
REV_AT_EPOCH   = 70994
BSTAR          = -.7825656E-5
MEAN_MOTION_DOT = .8E-7
MEAN_MOTION_DDOT = 0

CCSDS_OMM_VERS = 2.0
CREATION_DATE  = 
ORIGINATOR     = 

OBJECT_NAME    = SL-8 R/B
OBJECT_ID      = 1992-020B
CENTER_NAME    = EARTH
REF_FRAME      = TEME
TIME_SYSTEM    = UTC
MEAN_ELEMENT_THEORY = SGP/SGP4

EPOCH          = 2026-03-13T07:56:12.465312
MEAN_MOTION    = 13.75549826
ECCENTRICITY   = .0027613
INCLINATION    = 82.9331
RA_OF_ASC_NODE = 151.0586
ARG_OF_PERICENTER = 288.1754
MEAN_ANOMALY   = 140.4512

EPHEMERIS_TYPE = 0
CLASSIFICATION_TYPE = U
NORAD_CAT_ID   = 21938
ELEMENT_SET_NO = 999
REV_AT_EPOCH   = 70163
BSTAR          = .34423734E-4
MEAN_MOTION_DOT = .48E-6
MEAN_MOTION_DDOT = 0

CCSDS_OMM_VERS = 2.0
CREATION_DATE  = 
ORIGINATOR     = 

OBJECT_NAME    = USA 81
OBJECT_ID      = 1992-023A
CENTER_NAME    = EARTH
REF_FRAME      = TEME
TIME_SYSTEM    = UTC
MEAN_ELEMENT_THEORY = SGP/SGP4

EPOCH          = 2026-03-13T05:19:01.740288
MEAN_MOTION    = 14.32369172
ECCENTRICITY   = .00023759
INCLINATION    = 85.0077
RA_OF_ASC_NODE = 129.4037
ARG_OF_PERICENTER = 74.8203
MEAN_ANOMALY   = 285.3252

EPHEMERIS_TYPE = 0
CLASSIFICATION_TYPE = U
NORAD_CAT_ID   = 21949
ELEMENT_SET_NO = 999
REV_AT_EPOCH   = 9529
BSTAR          = .57706975E-4
MEAN_MOTION_DOT = .176E-5
MEAN_MOTION_DDOT = 0

CCSDS_OMM_VERS = 2.0
CREATION_DATE  = 
ORIGINATOR     = 

OBJECT_NAME    = COSMOS 2219
OBJECT_ID      = 1992-076A
CENTER_NAME    = EARTH
REF_FRAME      = TEME
TIME_SYSTEM    = UTC
MEAN_ELEMENT_THEORY = SGP/SGP4

EPOCH          = 2026-03-13T06:28:57.926496
MEAN_MOTION    = 14.14093486
ECCENTRICITY   = .00187754
INCLINATION    = 71.0640
RA_OF_ASC_NODE = 10.5834
ARG_OF_PERICENTER = 202.0457
MEAN_ANOMALY   = 157.9860

EPHEMERIS_TYPE = 0
CLASSIFICATION_TYPE = U
NORAD_CAT_ID   = 22219
ELEMENT_SET_NO = 999
REV_AT_EPOCH   = 71888
BSTAR          = .39216336E-4
MEAN_MOTION_DOT = .28E-6
MEAN_MOTION_DDOT = 0

CCSDS_OMM_VERS = 2.0
CREATION_DATE  = 
ORIGINATOR     = 

OBJECT_NAME    = SL-16 R/B
OBJECT_ID      = 1992-076B
CENTER_NAME    = EARTH
REF_FRAME      = TEME
TIME_SYSTEM    = UTC
MEAN_ELEMENT_THEORY = SGP/SGP4

EPOCH          = 2026-03-13T06:59:20.005728
MEAN_MOTION    = 14.16859204
ECCENTRICITY   = .00104747
INCLINATION    = 71.0008
RA_OF_ASC_NODE = 180.7878
ARG_OF_PERICENTER = 89.7333
MEAN_ANOMALY   = 301.0306

EPHEMERIS_TYPE = 0
CLASSIFICATION_TYPE = U
NORAD_CAT_ID   = 22220
ELEMENT_SET_NO = 999
REV_AT_EPOCH   = 72234
BSTAR          = -.20806089E-4
MEAN_MOTION_DOT = -.9E-6
MEAN_MOTION_DDOT = 0

CCSDS_OMM_VERS = 2.0
CREATION_DATE  = 
ORIGINATOR     = 

OBJECT_NAME    = COSMOS 2221
OBJECT_ID      = 1992-080A
CENTER_NAME    = EARTH
REF_FRAME      = TEME
TIME_SYSTEM    = UTC
MEAN_ELEMENT_THEORY = SGP/SGP4

EPOCH          = 2026-03-13T12:23:24.860544
MEAN_MOTION    = 14.96217844
ECCENTRICITY   = .00143612
INCLINATION    = 82.5010
RA_OF_ASC_NODE = 275.4149
ARG_OF_PERICENTER = 174.1892
MEAN_ANOMALY   = 185.9499

EPHEMERIS_TYPE = 0
CLASSIFICATION_TYPE = U
NORAD_CAT_ID   = 22236
ELEMENT_SET_NO = 999
REV_AT_EPOCH   = 78136
BSTAR          = .20540718E-3
MEAN_MOTION_DOT = .2346E-4
MEAN_MOTION_DDOT = 0

CCSDS_OMM_VERS = 2.0
CREATION_DATE  = 
ORIGINATOR     = 

OBJECT_NAME    = SL-16 R/B
OBJECT_ID      = 1992-093B
CENTER_NAME    = EARTH
REF_FRAME      = TEME
TIME_SYSTEM    = UTC
MEAN_ELEMENT_THEORY = SGP/SGP4

EPOCH          = 2026-03-13T04:51:22.043808
MEAN_MOTION    = 14.15447135
ECCENTRICITY   = .00063667
INCLINATION    = 71.0241
RA_OF_ASC_NODE = 356.8924
ARG_OF_PERICENTER = 289.9111
MEAN_ANOMALY   = 70.1326

EPHEMERIS_TYPE = 0
CLASSIFICATION_TYPE = U
NORAD_CAT_ID   = 22285
ELEMENT_SET_NO = 999
REV_AT_EPOCH   = 71365
BSTAR          = -.30520009E-4
MEAN_MOTION_DOT = -.107E-5
MEAN_MOTION_DDOT = 0

CCSDS_OMM_VERS = 2.0
CREATION_DATE  = 
ORIGINATOR     = 

OBJECT_NAME    = COSMOS 2228
OBJECT_ID      = 1992-094A
CENTER_NAME    = EARTH
REF_FRAME      = TEME
TIME_SYSTEM    = UTC
MEAN_ELEMENT_THEORY = SGP/SGP4

EPOCH          = 2026-03-13T14:19:33.202848
MEAN_MOTION    = 14.97213482
ECCENTRICITY   = .00166609
INCLINATION    = 82.5159
RA_OF_ASC_NODE = 233.5688
ARG_OF_PERICENTER = 290.4794
MEAN_ANOMALY   = 69.4640

EPHEMERIS_TYPE = 0
CLASSIFICATION_TYPE = U
NORAD_CAT_ID   = 22286
ELEMENT_SET_NO = 999
REV_AT_EPOCH   = 77664
BSTAR          = .27204926E-3
MEAN_MOTION_DOT = .318E-4
MEAN_MOTION_DDOT = 0

CCSDS_OMM_VERS = 2.0
CREATION_DATE  = 
ORIGINATOR     = 

OBJECT_NAME    = SL-16 R/B
OBJECT_ID      = 1993-016B
CENTER_NAME    = EARTH
REF_FRAME      = TEME
TIME_SYSTEM    = UTC
MEAN_ELEMENT_THEORY = SGP/SGP4

EPOCH          = 2026-03-13T09:13:37.053696
MEAN_MOTION    = 14.15309365
ECCENTRICITY   = .00120609
INCLINATION    = 71.0080
RA_OF_ASC_NODE = 207.4207
ARG_OF_PERICENTER = 309.2313
MEAN_ANOMALY   = 50.7738

EPHEMERIS_TYPE = 0
CLASSIFICATION_TYPE = U
NORAD_CAT_ID   = 22566
ELEMENT_SET_NO = 999
REV_AT_EPOCH   = 70269
BSTAR          = -.3498157E-5
MEAN_MOTION_DOT = -.55E-6
MEAN_MOTION_DDOT = 0

